NORAD_CAT_ID,OBJECT_NAME,OBJECT_TYPE,EPOCH,MEAN_MOTION,ECCENTRICITY,INCLINATION,RA_OF_ASC_NODE,ARG_OF_PERICENTER,MEAN_ANOMALY,BSTAR,MEAN_MOTION_DOT,MEAN_MOTION_DDOT,TLE_LINE0,TLE_LINE1,TLE_LINE2,SEMIMAJOR_AXIS,PERIOD,APOGEE,PERIGEE,DECAYED
51980.0,STARLINK-3649,PAYLOAD,2023-02-26 01:35:55,15.08842719,0.0001763,53.2181,331.4336,62.9541,297.1631,0.001217,0.00019135,0.0,0 STARLINK-3649,1 51980U 22025AA  23057.06661542  .00019135  00000-0  12170-2 0  9993,2 51980  53.2181 331.4336 0001763  62.9541 297.1631 15.08842719 54937,6917.872,95.437,540.957,538.517,0.0
51980.0,STARLINK-3649,PAYLOAD,2023-02-26 22:15:55,15.0885302,0.0001072,53.2176,327.5672,80.8152,279.2961,0.0010364,0.00016251,0.0,0 STARLINK-3649,1 51980U 22025AA  23057.92772988  .00016251  00000-0  10364-2 0  9994,2 51980  53.2176 327.5672 0001072  80.8152 279.2961 15.08853020 55069,6917.841,95.437,540.447,538.964,0.0
51980.0,STARLINK-3649,PAYLOAD,2023-02-27 01:26:41,15.08870351,0.0001094,53.2177,326.9726,87.1047,273.0071,0.0017547,0.00027772,0.0,0 STARLINK-3649,1 51980U 22025AA  23058.06020745  .00027772  00000-0  17547-2 0  9997,2 51980  53.2177 326.9726 0001094  87.1047 273.0071 15.08870351 55082,6917.788,95.436,540.409,538.896,0.0
51980.0,STARLINK-3649,PAYLOAD,2023-02-27 17:20:32,15.08906346,0.0001456,53.2174,323.9995,69.1689,290.9459,0.0024735,0.0003937,0.0,0 STARLINK-3649,1 51980U 22025AA  23058.72259390  .00039370  00000-0  24735-2 0  9994,2 51980  53.2174 323.9995 0001456  69.1689 290.9459 15.08906346 54090,6917.678,95.433,540.55,538.535,0.0
51980.0,STARLINK-3649,PAYLOAD,2023-02-28 02:52:49,15.08919963,0.0001459,53.2172,322.2147,75.4909,284.6245,0.0021276,0.0003381,0.0,0 STARLINK-3649,1 51980U 22025AA  23059.12001865  .00033810  00000-0  21276-2 0  9991,2 51980  53.2172 322.2147 0001459  75.4909 284.6245 15.08919963 55247,6917.636,95.432,540.51,538.492,0.0
51980.0,STARLINK-3649,PAYLOAD,2023-02-28 21:57:28,15.08827518,0.0001754,53.2174,318.6446,81.9754,278.1437,0.00075898,0.00011808,0.0,0 STARLINK-3649,1 51980U 22025AA  23059.91491228  .00011808  00000-0  75898-3 0  9997,2 51980  53.2174 318.6446 0001754  81.9754 278.1437 15.08827518 54275,6917.919,95.438,540.997,538.57,0.0
51980.0,STARLINK-3649,PAYLOAD,2023-03-01 02:43:37,15.08825156,0.0001607,53.2174,317.7516,99.4328,260.6846,-0.0003162,-5.315e-05,0.0,0 STARLINK-3649,1 51980U 22025AA  23060.11363239 -.00005315  00000-0 -31620-3 0  9994,2 51980  53.2174 317.7516 0001607  99.4328 260.6846 15.08825156 55391,6917.926,95.438,540.902,538.679,0.0
51980.0,STARLINK-3649,PAYLOAD,2023-03-01 20:12:53,15.08804559,0.0001632,53.2191,314.4829,70.0857,290.0311,4.5587e-05,4.37e-06,0.0,0 STARLINK-3649,1 51980U 22025AA  23060.84228826  .00000437  00000-0  45587-4 0  9992,2 51980  53.2191 314.4829 0001632  70.0857 290.0311 15.08804559 55502,6917.989,95.44,540.983,538.725,0.0
51980.0,STARLINK-3649,PAYLOAD,2023-03-01 21:48:16,15.08804935,0.000161,53.2178,314.1835,80.1604,279.9569,0.0001647,2.332e-05,0.0,0 STARLINK-3649,1 51980U 22025AA  23060.90852961  .00002332  00000-0  16470-3 0  9996,2 51980  53.2178 314.1835 0001610  80.1604 279.9569 15.08804935 54428,6917.988,95.44,540.966,538.739,0.0
51980.0,STARLINK-3649,PAYLOAD,2023-03-02 20:03:41,15.08840642,0.0001573,53.2176,310.0208,87.2895,272.8277,0.00071805,0.00011158,0.0,0 STARLINK-3649,1 51980U 22025AA  23061.83589563  .00011158  00000-0  71805-3 0  9993,2 51980  53.2176 310.0208 0001573  87.2895 272.8277 15.08840642 55652,6917.878,95.438,540.832,538.655,0.0
51980.0,STARLINK-3649,PAYLOAD,2023-03-03 02:25:13,15.08861167,0.0001582,53.2181,308.8307,87.2186,272.8987,0.0011701,0.00018394,0.0,0 STARLINK-3649,1 51980U 22025AA  23062.10085167  .00018394  00000-0  11701-2 0  9992,2 51980  53.2181 308.8307 0001582  87.2186 272.8987 15.08861167 55693,6917.816,95.436,540.775,538.586,0.0
51980.0,STARLINK-3649,PAYLOAD,2023-03-03 18:19:04,15.08857953,9.91e-05,53.2173,305.8577,112.5359,247.5738,0.00066312,0.00010287,0.0,0 STARLINK-3649,1 51980U 22025AA  23062.76324785  .00010287  00000-0  66312-3 0  9998,2 51980  53.2173 305.8577 0000991 112.5359 247.5738 15.08857953 55799,6917.826,95.436,540.376,539.005,0.0
51980.0,STARLINK-3649,PAYLOAD,2023-03-03 21:29:50,15.0886376,0.0001391,53.2177,305.2644,98.8533,261.2617,0.00080384,0.00012537,0.0,0 STARLINK-3649,1 51980U 22025AA  23062.89572637  .00012537  00000-0  80384-3 0  9998,2 51980  53.2177 305.2644 0001391  98.8533 261.2617 15.08863760 54721,6917.808,95.436,540.635,538.71,0.0
51980.0,STARLINK-3649,PAYLOAD,2023-03-04 02:15:59,15.08878767,0.0001112,53.2177,304.372,81.5882,278.5237,0.0013851,0.00021848,0.0,0 STARLINK-3649,1 51980U 22025AA  23063.09444207  .00021848  00000-0  13851-2 0  9991,2 51980  53.2177 304.3720 0001112  81.5882 278.5237 15.08878767 55849,6917.762,95.435,540.396,538.858,0.0
51980.0,STARLINK-3649,PAYLOAD,2023-03-05 02:06:48,15.08833617,0.0001091,53.2175,299.9118,99.9235,260.1881,0.001526,0.00024077,0.0,0 STARLINK-3649,1 51980U 22025AA  23064.08806025  .00024077  00000-0  15260-2 0  9994,2 51980  53.2175 299.9118 0001091  99.9235 260.1881 15.08833617 55991,6917.9,95.438,540.52,539.01,0.0
51980.0,STARLINK-3649,PAYLOAD,2023-03-05 05:17:34,15.08848187,9.67e-05,53.2169,299.3175,107.7977,252.312,0.0019161,0.00030345,0.0,0 STARLINK-3649,1 51980U 22025AA  23064.22053875  .00030345  00000-0  19161-2 0  9996,2 51980  53.2169 299.3175 0000967 107.7977 252.3120 15.08848187 54922,6917.855,95.437,540.389,539.051,0.0
51980.0,STARLINK-3649,PAYLOAD,2023-03-05 19:36:03,15.08844493,7.87e-05,53.2186,296.647,105.3267,254.7812,0.001145,0.00017984,0.0,0 STARLINK-3649,1 51980U 22025AA  23064.81670255  .00017984  00000-0  11450-2 0  9995,2 51980  53.2186 296.6470 0000787 105.3267 254.7812 15.08844493 56107,6917.867,95.437,540.276,539.187,0.0
51980.0,STARLINK-3649,PAYLOAD,2023-03-05 21:11:26,15.08847833,0.0001476,53.2178,296.3495,47.1934,312.9182,0.0013577,0.0002139,0.0,0 STARLINK-3649,1 51980U 22025AA  23064.88294540  .00021390  00000-0  13577-2 0  9999,2 51980  53.2178 296.3495 0001476  47.1934 312.9182 15.08847833 55020,6917.856,95.437,540.743,538.7,0.0
51980.0,STARLINK-3649,PAYLOAD,2023-03-06 03:32:58,15.08880279,9.24e-05,53.2166,295.1556,104.9755,255.134,0.0025461,0.00040511,0.0,0 STARLINK-3649,1 51980U 22025AA  23065.14789616  .00040511  00000-0  25461-2 0  9993,2 51980  53.2166 295.1556 0000924 104.9755 255.1340 15.08880279 56152,6917.757,95.435,540.261,538.983,0.0
51980.0,STARLINK-3649,PAYLOAD,2023-03-06 14:40:40,15.08834158,0.0001168,53.2161,293.0726,106.2217,253.8903,0.00090075,0.00014074,0.0,0 STARLINK-3649,1 51980U 22025AA  23065.61158279  .00014074  00000-0  90075-3 0  9999,2 51980  53.2161 293.0726 0001168 106.2217 253.8903 15.08834158 56225,6917.898,95.438,540.571,538.955,0.0
51980.0,STARLINK-3649,PAYLOAD,2023-03-07 01:48:22,15.08869245,0.0001226,53.2155,290.9913,85.7297,274.3835,0.0025192,0.00040065,0.0,0 STARLINK-3649,1 51980U 22025AA  23066.07525992  .00040065  00000-0  25192-2 0  9996,2 51980  53.2155 290.9913 0001226  85.7297 274.3835 15.08869245 56290,6917.791,95.436,540.504,538.808,0.0
51980.0,STARLINK-3649,PAYLOAD,2023-03-07 14:31:27,15.08853034,0.000157,53.2149,288.6115,92.5896,267.5276,0.00194,0.00030733,0.0,0 STARLINK-3649,1 51980U 22025AA  23066.60518342  .00030733  00000-0  19400-2 0  9992,2 51980  53.2149 288.6115 0001570  92.5896 267.5276 15.08853034 56375,6917.841,95.437,540.792,538.619,0.0
51980.0,STARLINK-3649,PAYLOAD,2023-03-07 20:53:00,15.08860454,0.0001798,53.2155,287.4217,84.9489,275.1708,0.0016544,0.00026155,0.0,0 STARLINK-3649,1 51980U 22025AA  23066.87014225  .00026155  00000-0  16544-2 0  9991,2 51980  53.2155 287.4217 0001798  84.9489 275.1708 15.08860454 55320,6917.818,95.436,540.927,538.439,0.0
51980.0,STARLINK-3649,PAYLOAD,2023-03-08 00:03:46,15.08862119,0.0001418,53.2155,286.8271,84.0071,276.1082,0.0016282,0.00025736,0.0,0 STARLINK-3649,1 51980U 22025AA  23067.00262111  .00025736  00000-0  16282-2 0  9999,2 51980  53.2155 286.8271 0001418  84.0071 276.1082 15.08862119 56439,6917.813,95.436,540.659,538.697,0.0
51980.0,STARLINK-3649,PAYLOAD,2023-03-08 14:22:14,15.08853099,0.0001856,53.2107,284.1527,77.3131,282.8068,0.00098494,0.00015428,0.0,0 STARLINK-3649,1 51980U 22025AA  23067.59878139  .00015428  00000-0  98494-3 0  9999,2 51980  53.2107 284.1527 0001856  77.3131 282.8068 15.08853099 56524,6917.84,95.437,540.989,538.421,0.0
51980.0,STARLINK-3649,PAYLOAD,2023-03-08 20:43:46,15.08868974,0.0001779,53.2096,282.9624,86.0057,274.1139,0.00126,0.00019838,0.0,0 STARLINK-3649,1 51980U 22025AA  23067.86373641  .00019838  00000-0  12600-2 0  9990,2 51980  53.2096 282.9624 0001779  86.0057 274.1139 15.08868974 55477,6917.792,95.436,540.888,538.426,0.0
51980.0,STARLINK-3649,PAYLOAD,2023-03-09 18:59:10,15.08846448,0.0001078,53.2146,278.7983,125.2209,234.8884,0.00056276,8.681e-05,0.0,0 STARLINK-3649,1 51980U 22025AA  23068.79109573  .00008681  00000-0  56276-3 0  9996,2 51980  53.2146 278.7983 0001078 125.2209 234.8884 15.08846448 56700,6917.861,95.437,540.471,538.98,0.0
51980.0,STARLINK-3649,PAYLOAD,2023-03-09 20:34:33,15.08846706,8.87e-05,53.2161,278.5017,84.9777,275.1316,0.00069448,0.00010784,0.0,0 STARLINK-3649,1 51980U 22025AA  23068.85733761  .00010784  00000-0  69448-3 0  9997,2 51980  53.2161 278.5017 0000887  84.9777 275.1316 15.08846706 55626,6917.86,95.437,540.339,539.111,0.0
51980.0,STARLINK-3649,PAYLOAD,2023-03-10 14:03:49,15.08825338,0.0001419,53.2137,275.2299,83.0402,277.0752,0.00056033,8.637e-05,0.0,0 STARLINK-3649,1 51980U 22025AA  23069.58598481  .00008637  00000-0  56033-3 0  9996,2 51980  53.2137 275.2299 0001419  83.0402 277.0752 15.08825338 56828,6917.925,95.438,540.772,538.809,0.0
51980.0,STARLINK-3649,PAYLOAD,2023-03-10 20:25:21,15.08831291,9.7e-05,53.2158,274.0411,73.4402,286.6696,0.0004615,7.063e-05,0.0,0 STARLINK-3649,1 51980U 22025AA  23069.85094564  .00007063  00000-0  46150-3 0  9990,2 51980  53.2158 274.0411 0000970  73.4402 286.6696 15.08831291 55779,6917.907,95.438,540.443,539.101,0.0
